SOYUZ-MS 28             
1 66664U 25275A   25365.75865998  .00015131  00000+0  28223-3 0  9997
2 66664  51.6330  48.2919 0007527 325.0386  35.0108 15.48982944  1281
1998-067XS              
1 66906U 98067XS  25365.60679222  .00037966  00000+0  63118-3 0  9994
2 66906  51.6322  48.7786 0002537 301.8900  58.1843 15.51682715  4549
1998-067XT              
1 66907U 98067XT  25365.52081029  .00095558  00000+0  14363-2 0  9996
2 66907  51.6318  48.9544 0003838 343.4521  16.6344 15.54068826  4533
1998-067XU              
1 66908U 98067XU  25365.51967089  .00090490  00000+0  13632-2 0  9993
2 66908  51.6315  48.9463 0003917 338.9908  21.0921 15.54031854  4539
SILVERSAT               
1 66909U 98067XV  25365.51658194  .00106232  00000+0  15687-2 0  9992
2 66909  51.6312  48.9255 0003983 346.7653  13.3233 15.54503968  4533
1998-067XW              
1 66910U 98067XW  25365.38687477  .00093121  00000+0  13892-2 0  9993
2 66910  51.6314  49.5599 0003447 316.7976  43.2743 15.54288814  4511
1998-067XX              
1 66911U 98067XX  25365.38052956  .00112028  00000+0  16211-2 0  9998
2 66911  51.6318  49.5181 0003204 330.0387  30.0420 15.55033456  4505
1998-067XY              
1 66912U 98067XY  25365.39996320  .00070905  00000+0  11066-2 0  9992
2 66912  51.6325  49.6480 0003786 329.9609  30.1163 15.53164396  4507
